DELTA 2 R/B(1)          
1 20453U 90008B   26128.72702148  .00059181  00000+0  53633-3 0  9997
2 20453  35.6005 138.5053 0070581 103.5802 257.2810 15.63631889935518
COSMOS 2058             
1 20465U 90010A   26128.88817481  .00003240  00000+0  18797-3 0  9994
2 20465  82.4681 348.1097 0011198 120.7655 239.4679 15.11782347951336
SL-14 R/B               
1 20466U 90010B   26128.51101492  .00000323  00000+0  36070-4 0  9997
2 20466  82.5044 211.2010 0021347 102.1122 258.2487 14.83622351937354
SL-14 R/B               
1 20511U 90018B   26128.85624012  .00000253  00000+0  28830-4 0  9998
2 20511  82.5213 166.8707 0014757 252.1586 107.8019 14.82192361931499
HST                     
1 20580U 90037B   26128.82445620  .00006179  00000+0  19697-3 0  9991
2 20580  28.4761 349.5058 0002174  66.1998 293.8826 15.30329703782538
SL-16 R/B               
1 20625U 90046B   26128.85580638  .00000139  00000+0  96357-4 0  9992
2 20625  70.9984 171.5522 0015575 220.1454 139.8519 14.15022721856907
COSMOS 2084             
1 20663U 90055A   26128.35555417  .00001491  00000+0  11573-3 0  9994
2 20663  62.7873 132.0230 0007995 220.0286 140.0226 15.05953949945309
SL-6 R/B(2)             
1 20666U 90055D   26128.88642021  .00001597  00000+0  12874-3 0  9995
2 20666  62.7840  49.0965 0034421 359.2137   0.8902 15.03864207947247
SL-8 R/B                
1 20775U 90078B   26128.48144637  .00020847  00000+0  60005-3 0  9995
2 20775  82.9039 197.4747 0355180 172.0620 188.6442 14.90986654818207
SL-8 R/B                
1 21088U 91006B   26128.71747729 -.00000002  00000+0 -16970-4 0  9998
2 21088  82.9393 125.3986 0021369 224.5059 310.1731 13.77506019772334
OKEAN-3                 
1 21397U 91039A   26128.85073185  .00002108  00000+0  14572-3 0  9992
2 21397  82.5154 278.5229 0015550 124.0259 236.2447 15.05139662874086
COSMOS 2151             
1 21422U 91042A   26128.84507297  .00001308  00000+0  10208-3 0  9993
2 21422  82.4988  25.6434 0011310 209.9253 150.1326 15.00334942872211
SL-14 R/B               
1 21423U 91042B   26128.51696505  .00000264  00000+0  30352-4 0  9992
2 21423  82.4927 164.0979 0018143  48.3654 311.9110 14.81877875861938
ERS-1                   
1 21574U 91050A   26128.75378468  .00000229  00000+0  87930-4 0  9994
2 21574  98.7822 148.4849 0032386  26.1888 334.0929 14.39492423824375
ARIANE 40 R/B           
1 21610U 91050F   26128.38467049  .00000221  00000+0  78520-4 0  9995
2 21610  98.1906 178.3459 0001920 237.7177 122.3828 14.42933334827603
INTERCOSMOS 25          
1 21819U 91086A   26128.82710104  .00000250  00000+0  46858-4 0  9998
2 21819  82.6013 273.6294 1485451 347.3086   9.4090 12.12149190503971
SL-8 R/B                
1 21876U 92008B   26128.55761646  .00000067  00000+0  53066-4 0  9998
2 21876  82.9288 223.2485 0033762 329.3587  40.8765 13.75972210717650
SL-8 R/B                
1 21938U 92020B   26128.72473718 -.00000018  00000+0 -34231-4 0  9991
2 21938  82.9274 109.1692 0030109 128.3523  44.8950 13.75547468709389
USA 81                  
1 21949U 92023A   26128.87575775  .00000168  00000+0  54951-4 0  9993
2 21949  85.0048  96.6951 0001824 111.5746 248.5641 14.32386793103402
COSMOS 2219             
1 22219U 92076A   26128.78977075  .00000046  00000+0  48854-4 0  9991
2 22219  71.0615 252.4286 0015959 110.4383 249.8455 14.14103389726877
SL-16 R/B               
1 22220U 92076B   26128.84753522  .00000135  00000+0  91110-4 0  9991
2 22220  71.0009  61.6509 0012905 353.1482  68.9210 14.16869460730356
COSMOS 2221             
1 22236U 92080A   26128.35421183  .00001326  00000+0  11446-3 0  9990
2 22236  82.5055 221.9198 0013927 358.5101   1.6077 14.96432855789719
SL-16 R/B               
1 22285U 92093B   26128.52618147 -.00000161  00000+0 -58038-4 0  9992
2 22285  71.0224 238.6491 0005990 235.1450 124.9110 14.15461450721620
COSMOS 2228             
1 22286U 92094A   26128.79807939  .00001331  00000+0  11163-3 0  9997
2 22286  82.5188 179.7666 0019534  99.5342 260.8089 14.97455953785050
SL-16 R/B               
1 22566U 93016B   26128.64339602  .00000079  00000+0  65286-4 0  9998
2 22566  71.0048  89.2612 0012118 238.1482 121.8461 14.15307681710650
COSMOS 2242             
1 22626U 93024A   26128.47248144  .00001340  00000+0  11449-3 0  9998
2 22626  82.5207 209.5309 0017787 103.8045 256.5158 14.96790736789337
SL-16 R/B               
1 22803U 93059B   26128.61189581 -.00000175  00000+0 -62604-4 0  9995
2 22803  70.9907 244.7588 0015177 123.2651 236.9929 14.17242438688028
ARIANE 40 R/B           
1 22830U 93061H   26128.19358343  .00000159  00000+0  73844-4 0  9993
2 22830  98.4833 195.8778 0011941 107.1011 253.1482 14.32890456702628
COSMOS 2278             
1 23087U 94023A   26128.85412644 -.00000177  00000+0 -67755-4 0  9991
2 23087  71.0552  49.2204 0011134 291.2652  68.7281 14.14388734653313
SL-16 R/B               
1 23088U 94023B   26128.87353412  .00000255  00000+0  15643-3 0  9994
2 23088  70.9998 304.4947 0004638 229.5426 130.5292 14.15021120654607
SL-16 R/B               
1 23343U 94074B   26128.87391127  .00000325  00000+0  50092-4 0  9995
2 23343  97.7020 157.2282 0007368  36.5146 136.8106 14.79468779696141
SL-16 R/B               
1 23405U 94077B   26128.54898911 -.00000234  00000+0 -95152-4 0  9991
2 23405  70.9831 226.5526 0000712  12.0159 348.0980 14.15570016624701
ARIANE 40+ R/B          
1 23561U 95021B   26128.15901668  .00000206  00000+0  79427-4 0  9999
2 23561  98.4420 198.8092 0005958 333.2687  55.7310 14.39811033627809
SL-16 R/B               
1 23705U 95058B   26128.84155980  .00000049  00000+0  49293-4 0  9996
2 23705  71.0220  53.9654 0011651  18.5622 341.5924 14.15502071576362
SL-16 R/B               
1 24298U 96051B   26128.86791701  .00000117  00000+0  90226-4 0  9995
2 24298  70.7628  47.8655 0012748  42.0684 318.1412 14.12432122530143
ORBVIEW 2 (SEASTAR)     
1 24883U 97037A   26128.70931170  .00000212  00000+0  89965-4 0  9993
2 24883  98.8657 294.6414 0001351 218.9307 141.1781 14.35532913517080
SL-16 R/B               
1 25400U 98043G   26128.86133484  .00000041  00000+0  36037-4 0  9998
2 25400  98.8340  82.6884 0009471 194.1699 165.9216 14.26062247447561
SL-16 R/B               
1 25407U 98045B   26128.75232603  .00000245  00000+0  14780-3 0  9994
2 25407  71.0123  55.2616 0009523 288.1975  71.8111 14.16200584435606
ISS (ZARYA)             
1 25544U 98067A   26128.77995169  .00007005  00000+0  13445-3 0  9993
2 25544  51.6310 135.1683 0007383  37.9322 322.2185 15.49151526565640
CZ-4B R/B               
1 25732U 99025C   26128.57291144  .00000023  00000+0  31680-4 0  9992
2 25732  98.6517 171.4020 0037339 170.9044 311.9959 14.18276552396659
OKEAN-O                 
1 25860U 99039A   26128.40270980  .00000474  00000+0  68835-4 0  9998
2 25860  97.9341 187.6525 0001829 106.0238 254.1176 14.80419250443225
SL-16 R/B               
1 25861U 99039B   26128.39413332  .00000405  00000+0  58051-4 0  9990
2 25861  97.9864 187.3658 0016044  66.2626 294.0267 14.81805098445702
DELTA 2 R/B             
1 25876U 99041E   26128.82228750  .00000502  00000+0  11976-3 0  9997
2 25876  51.7625  61.0479 0502146 165.7547 195.8157 14.11949204371525
HELIOS 1B               
1 25977U 99064A   26128.30082666  .00001145  00000+0  13146-3 0  9996
2 25977  98.1642  32.2839 0000930 135.3220 224.8070 14.87899840694120
TERRA                   
1 25994U 99068A   26128.85008972  .00000302  00000+0  70600-4 0  9990
2 25994  97.9485 179.9502 0002437  28.6112  58.5113 14.61071609403861
SL-16 R/B               
1 26070U 00006B   26128.85399101 -.00000203  00000+0 -79036-4 0  9991
2 26070  71.0031 331.3320 0014235  89.8252 270.4502 14.15834216357070
TITAN 4B R/B            
1 26474U 00047B   26128.78278355  .00002117  00000+0  13564-3 0  9990
2 26474  67.9888 231.4663 0043697 327.8010  32.0472 15.09992647401988
ENVISAT                 
1 27386U 02009A   26128.88655844  .00000077  00000+0  38887-4 0  9995
2 27386  98.3811  81.0875 0001170  90.8334 285.9000 14.39055449267837
IDEFIX & ARIANE 42P R/B 
1 27422U 02021B   26128.83589353  .00000201  00000+0  93005-4 0  9998
2 27422  98.5929  66.7494 0012211  16.2237 343.9335 14.31063117252629
AQUA                    
1 27424U 02022A   26128.90921698  .00000683  00000+0  14580-3 0  9995
2 27424  98.4256  97.4154 0002128  82.0631 335.4361 14.62097387277534
CZ-4B R/B               
1 27432U 02024C   26128.57316345  .00000032  00000+0  39586-4 0  9998
2 27432  98.8729 181.6438 0049615 211.8359 280.1191 14.14557865237705
MIDORI II (ADEOS-II)    
1 27597U 02056A   26128.86684653  .00000235  00000+0  11019-3 0  9992
2 27597  98.7855  87.7992 0001427 129.6389 230.4918 14.29327230218896
H-2A R/B                
1 27601U 02056E   26128.86126288  .00000248  00000+0  10148-3 0  9999
2 27601  98.3290  86.9749 0069873 343.4390  69.9081 14.33802822222733
CZ-4B R/B               
1 28059U 03049C   26128.55426852  .00000319  00000+0  84467-4 0  9991
2 28059  98.6899 125.8256 0049072  49.9776 310.5711 14.55071263195308
CZ-2C R/B               
1 28222U 04012C   26128.65035764  .00070365  00000+0  52659-3 0  9998
2 28222  97.7107 199.9411 0011940  92.6901 267.5728 15.72368447213678
SL-16 R/B               
1 28353U 04021B   26128.63328397  .00000022  00000+0  36436-4 0  9997
2 28353  70.9979 106.6970 0006845 296.0243  64.0174 14.14601666131318
CZ-4B R/B               
1 28415U 04035C   26128.57251699  .00006918  00000+0  23679-3 0  9998
2 28415  97.3401 162.1052 0033109 115.0081 245.4604 15.30021320189061
CZ-2C R/B               
1 28480U 04046B   26128.50570860  .00000123  00000+0  61109-4 0  9992
2 28480  98.1964  39.7609 0138979 338.5085  21.0297 14.27015608117031
ARIANE 5 R/B            
1 28499U 04049H   26128.45398220  .00000894  00000+0  10442-3 0  9995
2 28499  98.2701 299.1799 0084551 156.6221 203.8873 14.85383138154660
